{
    "links": {
        "self": "http://www.neowsapp.com/rest/v1/neo/3689342?api_key=iIulBulltgU6a56xZRHN4H3l9WmuAYTsLGpBGhQ2"
    },
    "id": "3689342",
    "neo_reference_id": "3689342",
    "name": "(2014 RO60)",
    "designation": "2014 RO60",
    "nasa_jpl_url": "http://ssd.jpl.nasa.gov/sbdb.cgi?sstr=3689342",
    "absolute_magnitude_h": 25.5,
    "estimated_diameter": {
        "kilometers": {
            "estimated_diameter_min": 0.0211132445,
            "estimated_diameter_max": 0.0472106499
        },
        "meters": {
            "estimated_diameter_min": 21.113244479,
            "estimated_diameter_max": 47.2106498806
        },
        "miles": {
            "estimated_diameter_min": 0.0131191578,
            "estimated_diameter_max": 0.0293353287
        },
        "feet": {
            "estimated_diameter_min": 69.2691770164,
            "estimated_diameter_max": 154.8905885541
        }
    },
    "is_potentially_hazardous_asteroid": false,
    "close_approach_data": [
        {
            "close_approach_date": "2014-09-22",
            "close_approach_date_full": "2014-Sep-22 21:59",
            "epoch_date_close_approach": 1411423140000,
            "relative_velocity": {
                "kilometers_per_second": "7.1912821646",
                "kilometers_per_hour": "25888.6157927349",
                "miles_per_hour": "16086.1790741024"
            },
            "miss_distance": {
                "astronomical": "0.0624571829",
                "lunar": "24.2958441481",
                "kilometers": "9343461.528040423",
                "miles": "5805757.7769589174"
            },
            "orbiting_body": "Earth"
        },
        {
            "close_approach_date": "2164-11-11",
            "close_approach_date_full": "2164-Nov-11 00:40",
            "epoch_date_close_approach": 6149263200000,
            "relative_velocity": {
                "kilometers_per_second": "13.8771651063",
                "kilometers_per_hour": "49957.7943827455",
                "miles_per_hour": "31041.8306263232"
            },
            "miss_distance": {
                "astronomical": "0.3666066008",
                "lunar": "142.6099677112",
                "kilometers": "54843566.607620296",
                "miles": "34078212.0622842448"
            },
            "orbiting_body": "Earth"
        }
    ],
    "orbital_data": {
        "orbit_id": "6",
        "orbit_determination_date": "2017-04-06 08:38:41",
        "first_observation_date": "2014-09-15",
        "last_observation_date": "2014-09-27",
        "data_arc_in_days": 12,
        "observations_used": 27,
        "orbit_uncertainty": "8",
        "minimum_orbit_intersection": ".0622458",
        "jupiter_tisserand_invariant": "4.081",
        "epoch_osculation": "2456920.5",
        "eccentricity": ".3875457187466379",
        "semi_major_axis": "1.711881783005243",
        "inclination": "9.965269177349706",
        "ascending_node_longitude": "351.6039827627271",
        "orbital_period": "818.1050669586393",
        "perihelion_distance": "1.0484493270012",
        "perihelion_argument": "24.58745468458897",
        "aphelion_distance": "2.375314239009286",
        "perihelion_time": "2456938.965905290468",
        "mean_anomaly": "351.8742394185604",
        "mean_motion": ".4400412789745017",
        "equinox": "J2000",
        "orbit_class": {
            "orbit_class_type": "AMO",
            "orbit_class_description": "Near-Earth asteroid orbits similar to that of 1221 Amor",
            "orbit_class_range": "1.017 AU < q (perihelion) < 1.3 AU"
        }
    },
    "is_sentry_object": false
}